STARLINK-31270          
1 59154U 24044C   26068.42189563 -.00002079  00000+0 -66064-4 0  9993
2 59154  43.0016 108.6228 0000770 219.3412 140.7384 15.27567119113559
LIZZIESAT-2 (LS-2)      
1 62383U 24247G   26068.49140277  .00009388  00000+0  34517-3 0  9997
2 62383  44.9909 117.0823 0004092 327.5136  32.5495 15.28222796 67716
